{
  "type": "FeatureCollection",
  "features": [
    {
      "type": "Feature",
      "properties": {
        "norad_id": 66732,
        "name": "FLOCK 4H-29",
        "group": "last-30-days",
        "lat": -28.413639320745133,
        "lon": 73.5562320583996,
        "alt_km": 519.9729286521224,
        "timestamp": "2025-12-23T22:42:31.700660+00:00",
        "meta_object_name": "FLOCK 4H-29",
        "meta_object_id": "2025-276BU",
        "meta_epoch": "2025-12-23T03:50:31.112448",
        "meta_mean_motion": 15.17286901,
        "meta_eccentricity": 0.00020889,
        "meta_inclination": 97.4392,
        "meta_ra_of_asc_node": 68.7307,
        "meta_arg_of_pericenter": 236.6345,
        "meta_mean_anomaly": 123.4689,
        "meta_ephemeris_type": 0,
        "meta_classification_type": "U",
        "meta_norad_cat_id": 66732,
        "meta_element_set_no": 999,
        "meta_rev_at_epoch": 370,
        "meta_bstar": 0.0019114481,
        "meta_mean_motion_dot": 0.00038183,
        "meta_mean_motion_ddot": 0,
        "tle_line1": "1 66732U 25276BU  25357.16008232  .00038183  00000+0  19114-2 0  9990",
        "tle_line2": "2 66732  97.4392  68.7307 0002088 236.6345 123.4689 15.17286901  3701"
      },
      "geometry": {
        "type": "Point",
        "coordinates": [
          73.5562320583996,
          -28.413639320745133
        ]
      }
    },
    {
      "type": "Feature",
      "properties": {
        "norad_id": 66733,
        "name": "FLOCK 4H-30",
        "group": "last-30-days",
        "lat": -34.551523838228974,
        "lon": 74.68046627959515,
        "alt_km": 519.2156600200433,
        "timestamp": "2025-12-23T22:42:31.700669+00:00",
        "meta_object_name": "FLOCK 4H-30",
        "meta_object_id": "2025-276BV",
        "meta_epoch": "2025-12-22T15:12:22.935456",
        "meta_mean_motion": 15.17239498,
        "meta_eccentricity": 0.00032964,
        "meta_inclination": 97.4437,
        "meta_ra_of_asc_node": 68.2255,
        "meta_arg_of_pericenter": 267.9679,
        "meta_mean_anomaly": 92.1177,
        "meta_ephemeris_type": 0,
        "meta_classification_type": "U",
        "meta_norad_cat_id": 66733,
        "meta_element_set_no": 999,
        "meta_rev_at_epoch": 362,
        "meta_bstar": 0.001256861,
        "meta_mean_motion_dot": 0.00025007,
        "meta_mean_motion_ddot": 0,
        "tle_line1": "1 66733U 25276BV  25356.63359879  .00025007  00000+0  12569-2 0  9996",
        "tle_line2": "2 66733  97.4437  68.2255 0003296 267.9679  92.1177 15.17239498  3622"
      },
      "geometry": {
        "type": "Point",
        "coordinates": [
          74.68046627959515,
          -34.551523838228974
        ]
      }
    },
    {
      "type": "Feature",
      "properties": {
        "norad_id": 66734,
        "name": "FLOCK 4H-31",
        "group": "last-30-days",
        "lat": -34.73964451446587,
        "lon": 74.69120782304628,
        "alt_km": 517.5727087608675,
        "timestamp": "2025-12-23T22:42:31.700679+00:00",
        "meta_object_name": "FLOCK 4H-31",
        "meta_object_id": "2025-276BW",
        "meta_epoch": "2025-12-23T03:52:00.074208",
        "meta_mean_motion": 15.17093447,
        "meta_eccentricity": 0.0005288,
        "meta_inclination": 97.4364,
        "meta_ra_of_asc_node": 68.7242,
        "meta_arg_of_pericenter": 323.6856,
        "meta_mean_anomaly": 36.4018,
        "meta_ephemeris_type": 0,
        "meta_classification_type": "U",
        "meta_norad_cat_id": 66734,
        "meta_element_set_no": 999,
        "meta_rev_at_epoch": 370,
        "meta_bstar": -0.0027326061,
        "meta_mean_motion_dot": -0.00053784,
        "meta_mean_motion_ddot": 0,
        "tle_line1": "1 66734U 25276BW  25357.16111197 -.00053784  00000+0 -27326-2 0  9997",
        "tle_line2": "2 66734  97.4364  68.7242 0005288 323.6856  36.4018 15.17093447  3709"
      },
      "geometry": {
        "type": "Point",
        "coordinates": [
          74.69120782304628,
          -34.73964451446587
        ]
      }
    },
    {
      "type": "Feature",
      "properties": {
        "norad_id": 66735,
        "name": "FLOCK 4H-32",
        "group": "last-30-days",
        "lat": -36.32947153827251,
        "lon": 75.02882659028984,
        "alt_km": 519.6296021672806,
        "timestamp": "2025-12-23T22:42:31.700689+00:00",
        "meta_object_name": "FLOCK 4H-32",
        "meta_object_id": "2025-276BX",
        "meta_epoch": "2025-12-23T03:52:34.420800",
        "meta_mean_motion": 15.17229382,
        "meta_eccentricity": 0.00035926,
        "meta_inclination": 97.4427,
        "meta_ra_of_asc_node": 68.7416,
        "meta_arg_of_pericenter": 258.3605,
        "meta_mean_anomaly": 101.7225,
        "meta_ephemeris_type": 0,
        "meta_classification_type": "U",
        "meta_norad_cat_id": 66735,
        "meta_element_set_no": 999,
        "meta_rev_at_epoch": 370,
        "meta_bstar": 0.00053434316,
        "meta_mean_motion_dot": 0.0001057,
        "meta_mean_motion_ddot": 0,
        "tle_line1": "1 66735U 25276BX  25357.16150950  .00010570  00000+0  53434-3 0  9992",
        "tle_line2": "2 66735  97.4427  68.7416 0003592 258.3605 101.7225 15.17229382  3700"
      },
      "geometry": {
        "type": "Point",
        "coordinates": [
          75.02882659028984,
          -36.32947153827251
        ]
      }
    },
    {
      "type": "Feature",
      "properties": {
        "norad_id": 66736,
        "name": "FLOCK 4H-33",
        "group": "last-30-days",
        "lat": 57.43140763678953,
        "lon": 57.74301000831668,
        "alt_km": 505.6888224498416,
        "timestamp": "2025-12-23T22:42:31.700699+00:00",
        "meta_object_name": "FLOCK 4H-33",
        "meta_object_id": "2025-276BY",
        "meta_epoch": "2025-12-23T03:28:21.393120",
        "meta_mean_motion": 15.18291474,
        "meta_eccentricity": 0.00026406,
        "meta_inclination": 97.4427,
        "meta_ra_of_asc_node": 68.7639,
        "meta_arg_of_pericenter": 158.0878,
        "meta_mean_anomaly": 202.047,
        "meta_ephemeris_type": 0,
        "meta_classification_type": "U",
        "meta_norad_cat_id": 66736,
        "meta_element_set_no": 999,
        "meta_rev_at_epoch": 370,
        "meta_bstar": 0.00055897347,
        "meta_mean_motion_dot": 0.00011403,
        "meta_mean_motion_ddot": 0,
        "tle_line1": "1 66736U 25276BY  25357.14469205  .00011403  00000+0  55897-3 0  9998",
        "tle_line2": "2 66736  97.4427  68.7639 0002640 158.0878 202.0470 15.18291474  3708"
      },
      "geometry": {
        "type": "Point",
        "coordinates": [
          57.74301000831668,
          57.43140763678953
        ]
      }
    },
    {
      "type": "Feature",
      "properties": {
        "norad_id": 66737,
        "name": "FLOCK 4H-34",
        "group": "last-30-days",
        "lat": 48.86239464077679,
        "lon": 60.94415164364088,
        "alt_km": 502.60108474115987,
        "timestamp": "2025-12-23T22:42:31.700709+00:00",
        "meta_object_name": "FLOCK 4H-34",
        "meta_object_id": "2025-276BZ",
        "meta_epoch": "2025-12-23T03:30:45.467712",
        "meta_mean_motion": 15.18302743,
        "meta_eccentricity": 0.00116966,
        "meta_inclination": 97.4442,
        "meta_ra_of_asc_node": 68.7657,
        "meta_arg_of_pericenter": 348.389,
        "meta_mean_anomaly": 11.7073,
        "meta_ephemeris_type": 0,
        "meta_classification_type": "U",
        "meta_norad_cat_id": 66737,
        "meta_element_set_no": 999,
        "meta_rev_at_epoch": 295,
        "meta_bstar": 0.004784437,
        "meta_mean_motion_dot": 0.00099477,
        "meta_mean_motion_ddot": 0,
        "tle_line1": "1 66737U 25276BZ  25357.14635958  .00099477  00000+0  47844-2 0  9998",
        "tle_line2": "2 66737  97.4442  68.7657 0011696 348.3890  11.7073 15.18302743  2957"
      },
      "geometry": {
        "type": "Point",
        "coordinates": [
          60.94415164364088,
          48.86239464077679
        ]
      }
    },
    {
      "type": "Feature",
      "properties": {
        "norad_id": 66738,
        "name": "FLOCK 4H-35",
        "group": "last-30-days",
        "lat": 56.9936293391248,
        "lon": 57.937161534015175,
        "alt_km": 505.5988878495373,
        "timestamp": "2025-12-23T22:42:31.700723+00:00",
        "meta_object_name": "FLOCK 4H-35",
        "meta_object_id": "2025-276CA",
        "meta_epoch": "2025-12-23T01:53:31.937568",
        "meta_mean_motion": 15.18243833,
        "meta_eccentricity": 0.00023871,
        "meta_inclination": 97.4404,
        "meta_ra_of_asc_node": 68.6906,
        "meta_arg_of_pericenter": 148.106,
        "meta_mean_anomaly": 212.0319,
        "meta_ephemeris_type": 0,
        "meta_classification_type": "U",
        "meta_norad_cat_id": 66738,
        "meta_element_set_no": 999,
        "meta_rev_at_epoch": 298,
        "meta_bstar": 0.00037982957,
        "meta_mean_motion_dot": 7.713e-05,
        "meta_mean_motion_ddot": 0,
        "tle_line1": "1 66738U 25276CA  25357.07884187  .00007713  00000+0  37983-3 0  9997",
        "tle_line2": "2 66738  97.4404  68.6906 0002387 148.1060 212.0319 15.18243833  2980"
      },
      "geometry": {
        "type": "Point",
        "coordinates": [
          57.937161534015175,
          56.9936293391248
        ]
      }
    }
  ]
}